[{"OBJECT_NAME":"PRAETORIAN SDA_621","OBJECT_ID":"2025-203V","EPOCH":"2026-03-09T14:20:07.156320","MEAN_MOTION":13.83787478,"ECCENTRICITY":0.0008673,"INCLINATION":81.2989,"RA_OF_ASC_NODE":102.9072,"ARG_OF_PERICENTER":96.3239,"MEAN_ANOMALY":263.8905,"EPHEMERIS_TYPE":0,"CLASSIFICATION_TYPE":"U","NORAD_CAT_ID":65584,"ELEMENT_SET_NO":999,"REV_AT_EPOCH":2492,"BSTAR":5.4754e-5,"MEAN_MOTION_DOT":7.3e-7,"MEAN_MOTION_DDOT":0},{"OBJECT_NAME":"SL-14 R\/B","OBJECT_ID":"1984-072B","EPOCH":"2026-03-09T16:08:17.973600","MEAN_MOTION":13.84553071,"ECCENTRICITY":0.00127591,"INCLINATION":82.5295,"RA_OF_ASC_NODE":124.3095,"ARG_OF_PERICENTER":43.7756,"MEAN_ANOMALY":316.4413,"EPHEMERIS_TYPE":0,"CLASSIFICATION_TYPE":"U","NORAD_CAT_ID":15100,"ELEMENT_SET_NO":999,"REV_AT_EPOCH":10570,"BSTAR":1.3517287e-5,"MEAN_MOTION_DOT":3.0e-7,"MEAN_MOTION_DDOT":0}]
